[
    {
        "Altitude(m)": 610399.5415417067,
        "Argument of Periapsis(deg)": 0.0,
        "Eccentricity": 0.0,
        "Inclination(deg)": 60.0,
        "Latitude(deg)": 52.11136999053727,
        "Longitude(deg)": -177.4155734422876,
        "Mean Anomaly(deg)": 65.45449999999998,
        "RAAN(deg)": 235.0,
        "Satellite Name": "Test1 1038",
        "Satellite Number": 1038,
        "Semi-Major Axis(m)": 6980739.136638005,
        "Time(s)": 0
    },
    {
        "Altitude(m)": 610481.6921199214,
        "Argument of Periapsis(deg)": 0.00010418945913296404,
        "Eccentricity": 0.0,
        "Inclination(deg)": 60.0,
        "Latitude(deg)": 52.47097095005874,
        "Longitude(deg)": -176.63343503765188,
        "Mean Anomaly(deg)": 66.07460614546183,
        "RAAN(deg)": 234.99957995086027,
        "Satellite Name": "Test1 1038",
        "Satellite Number": 1038,
        "Semi-Major Axis(m)": 6980739.136638005,
        "Time(s)": 10
    }
]